COSMOS 2242             
1 22626U 93024A   26064.08926311  .00002128  00000+0  18458-3 0  9995
2 22626  82.5152 271.1182 0015490 325.4082  34.6130 14.96525659779707
SL-16 R/B               
1 22803U 93059B   26064.24202987 -.00000059  00000+0 -54664-5 0  9998
2 22803  70.9922  20.5044 0018747 222.9016 137.0647 14.17232284678902
ARIANE 40 R/B           
1 22830U 93061H   26064.15958840  .00000268  00000+0  11389-3 0  9992
2 22830  98.4924 133.1364 0009622 300.0937  59.9292 14.32858189693457
COSMOS 2278             
1 23087U 94023A   26064.28357117  .00000281  00000+0  17130-3 0  9995
2 23087  71.0545 184.3143 0007740  22.2183 337.9273 14.14376796644189
SL-16 R/B               
1 23088U 94023B   26064.26132172 -.00000149  00000+0 -52261-4 0  9996
2 23088  70.9987  80.1880 0005669 289.9733  70.0779 14.15013223645462
SL-16 R/B               
1 23343U 94074B   26064.05276086  .00000630  00000+0  91116-4 0  9991
2 23343  97.7114  95.0582 0005465 228.2670 160.2790 14.79401664686560
SL-16 R/B               
1 23405U 94077B   26064.24466605 -.00000217  00000+0 -86331-4 0  9998
2 23405  70.9851   1.8393 0003348 218.5508 141.5376 14.15561763615601
ARIANE 40+ R/B          
1 23561U 95021B   26064.15292925  .00000380  00000+0  13507-3 0  9996
2 23561  98.4506 135.6969 0007450 148.6965 232.6799 14.39768547618596
SL-16 R/B               
1 23705U 95058B   26064.32211547  .00000094  00000+0  72394-4 0  9998
2 23705  71.0212 189.4236 0010982 133.4816 226.7223 14.15493059567239
SL-16 R/B               
1 24298U 96051B   26064.27933462  .00000116  00000+0  89656-4 0  9995
2 24298  70.7598 184.5730 0015469 154.6404 205.5478 14.12414380521029
ORBVIEW 2 (SEASTAR)     
1 24883U 97037A   26064.16606063  .00000431  00000+0  16600-3 0  9990
2 24883  98.8557 228.3581 0003159  80.9632 279.1910 14.35490983507821
SL-16 R/B               
1 25400U 98043G   26064.31130724  .00000092  00000+0  57382-4 0  9993
2 25400  98.8249  17.6440 0010416  32.5107 327.6712 14.26048554438366
SL-16 R/B               
1 25407U 98045B   26063.48759336 -.00000174  00000+0 -63820-4 0  9992
2 25407  71.0113 192.5126 0006434  15.8870 344.2454 14.16189328426365
ISS (ZARYA)             
1 25544U 98067A   26064.25394533  .00008604  00000+0  16717-3 0  9994
2 25544  51.6314  94.2866 0008160 158.8383 201.2944 15.48454548555643
CZ-4B R/B               
1 25732U 99025C   26064.15175646  .00000079  00000+0  59119-4 0  9991
2 25732  98.6636 108.5407 0036998 359.7385  68.5947 14.18264374387523
OKEAN-O                 
1 25860U 99039A   26064.12320565  .00000857  00000+0  11926-3 0  9994
2 25860  97.9451 124.0609 0001402  70.5511 289.5852 14.80326672433712
SL-16 R/B               
1 25861U 99039B   26064.17490202  .00000823  00000+0  11113-3 0  9997
2 25861  97.9974 123.2781 0013439 272.3041  87.6633 14.81724541436195
