[{"OBJECT_NAME":"COSMOS 2242","OBJECT_ID":"1993-024A","EPOCH":"2026-03-05T02:08:32.332704","MEAN_MOTION":14.96525659,"ECCENTRICITY":0.00154906,"INCLINATION":82.5152,"RA_OF_ASC_NODE":271.1182,"ARG_OF_PERICENTER":325.4082,"MEAN_ANOMALY":34.613,"EPHEMERIS_TYPE":0,"CLASSIFICATION_TYPE":"U","NORAD_CAT_ID":22626,"ELEMENT_SET_NO":999,"REV_AT_EPOCH":77970,"BSTAR":0.00018458239,"MEAN_MOTION_DOT":2.128e-5,"MEAN_MOTION_DDOT":0},{"OBJECT_NAME":"SL-16 R/B","OBJECT_ID":"1993-059B","EPOCH":"2026-03-05T05:48:31.380768","MEAN_MOTION":14.17232284,"ECCENTRICITY":0.00187476,"INCLINATION":70.9922,"RA_OF_ASC_NODE":20.5044,"ARG_OF_PERICENTER":222.9016,"MEAN_ANOMALY":137.0647,"EPHEMERIS_TYPE":0,"CLASSIFICATION_TYPE":"U","NORAD_CAT_ID":22803,"ELEMENT_SET_NO":999,"REV_AT_EPOCH":67890,"BSTAR":-5.466381e-6,"MEAN_MOTION_DOT":-5.9e-7,"MEAN_MOTION_DDOT":0},{"OBJECT_NAME":"ARIANE 40 R/B","OBJECT_ID":"1993-061H","EPOCH":"2026-03-05T03:49:48.437760","MEAN_MOTION":14.32858189,"ECCENTRICITY":0.00096229,"INCLINATION":98.4924,"RA_OF_ASC_NODE":133.1364,"ARG_OF_PERICENTER":300.0937,"MEAN_ANOMALY":59.9292,"EPHEMERIS_TYPE":0,"CLASSIFICATION_TYPE":"U","NORAD_CAT_ID":22830,"ELEMENT_SET_NO":999,"REV_AT_EPOCH":69345,"BSTAR":0.00011389415,"MEAN_MOTION_DOT":2.68e-6,"MEAN_MOTION_DDOT":0},{"OBJECT_NAME":"COSMOS 2278","OBJECT_ID":"1994-023A","EPOCH":"2026-03-05T06:48:20.549088","MEAN_MOTION":14.14376796,"ECCENTRICITY":0.00077404,"INCLINATION":71.0545,"RA_OF_ASC_NODE":184.3143,"ARG_OF_PERICENTER":22.2183,"MEAN_ANOMALY":337.9273,"EPHEMERIS_TYPE":0,"CLASSIFICATION_TYPE":"U","NORAD_CAT_ID":23087,"ELEMENT_SET_NO":999,"REV_AT_EPOCH":64418,"BSTAR":0.00017129832,"MEAN_MOTION_DOT":2.81e-6,"MEAN_MOTION_DDOT":0},{"OBJECT_NAME":"SL-16 R/B","OBJECT_ID":"1994-023B","EPOCH":"2026-03-05T06:16:18.196608","MEAN_MOTION":14.15013223,"ECCENTRICITY":0.00056699,"INCLINATION":70.9987,"RA_OF_ASC_NODE":80.188,"ARG_OF_PERICENTER":289.9733,"MEAN_ANOMALY":70.0779,"EPHEMERIS_TYPE":0,"CLASSIFICATION_TYPE":"U","NORAD_CAT_ID":23088,"ELEMENT_SET_NO":999,"REV_AT_EPOCH":64546,"BSTAR":-5.2260618e-5,"MEAN_MOTION_DOT":-1.49e-6,"MEAN_MOTION_DDOT":0},{"OBJECT_NAME":"SL-16 R/B","OBJECT_ID":"1994-074B","EPOCH":"2026-03-05T01:15:58.538304","MEAN_MOTION":14.79401664,"ECCENTRICITY":0.00054658,"INCLINATION":97.7114,"RA_OF_ASC_NODE":95.0582,"ARG_OF_PERICENTER":228.267,"MEAN_ANOMALY":160.279,"EPHEMERIS_TYPE":0,"CLASSIFICATION_TYPE":"U","NORAD_CAT_ID":23343,"ELEMENT_SET_NO":999,"REV_AT_EPOCH":68656,"BSTAR":9.1116047e-5,"MEAN_MOTION_DOT":6.3e-6,"MEAN_MOTION_DDOT":0},{"OBJECT_NAME":"SL-16 R/B","OBJECT_ID":"1994-077B","EPOCH":"2026-03-05T05:52:19.146720","MEAN_MOTION":14.15561763,"ECCENTRICITY":0.00033485,"INCLINATION":70.9851,"RA_OF_ASC_NODE":1.8393,"ARG_OF_PERICENTER":218.5508,"MEAN_ANOMALY":141.5376,"EPHEMERIS_TYPE":0,"CLASSIFICATION_TYPE":"U","NORAD_CAT_ID":23405,"ELEMENT_SET_NO":999,"REV_AT_EPOCH":61560,"BSTAR":-8.6331433e-5,"MEAN_MOTION_DOT":-2.17e-6,"MEAN_MOTION_DDOT":0},{"OBJECT_NAME":"ARIANE 40+ R/B","OBJECT_ID":"1995-021B","EPOCH":"2026-03-05T03:40:13.087200","MEAN_MOTION":14.39768547,"ECCENTRICITY":0.00074501,"INCLINATION":98.4506,"RA_OF_ASC_NODE":135.6969,"ARG_OF_PERICENTER":148.6965,"MEAN_ANOMALY":232.6799,"EPHEMERIS_TYPE":0,"CLASSIFICATION_TYPE":"U","NORAD_CAT_ID":23561,"ELEMENT_SET_NO":999,"REV_AT_EPOCH":61859,"BSTAR":0.00013507174,"MEAN_MOTION_DOT":3.8e-6,"MEAN_MOTION_DDOT":0},{"OBJECT_NAME":"SL-16 R/B","OBJECT_ID":"1995-058B","EPOCH":"2026-03-05T07:43:50.776608","MEAN_MOTION":14.15493059,"ECCENTRICITY":0.00109829,"INCLINATION":71.0212,"RA_OF_ASC_NODE":189.4236,"ARG_OF_PERICENTER":133.4816,"MEAN_ANOMALY":226.7223,"EPHEMERIS_TYPE":0,"CLASSIFICATION_TYPE":"U","NORAD_CAT_ID":23705,"ELEMENT_SET_NO":999,"REV_AT_EPOCH":56723,"BSTAR":7.2394366e-5,"MEAN_MOTION_DOT":9.4e-7,"MEAN_MOTION_DDOT":0},{"OBJECT_NAME":"SL-16 R/B","OBJECT_ID":"1996-051B","EPOCH":"2026-03-05T06:42:14.511168","MEAN_MOTION":14.1241438,"ECCENTRICITY":0.00154696,"INCLINATION":70.7598,"RA_OF_ASC_NODE":184.573,"ARG_OF_PERICENTER":154.6404,"MEAN_ANOMALY":205.5478,"EPHEMERIS_TYPE":0,"CLASSIFICATION_TYPE":"U","NORAD_CAT_ID":24298,"ELEMENT_SET_NO":999,"REV_AT_EPOCH":52102,"BSTAR":8.9655752e-5,"MEAN_MOTION_DOT":1.16e-6,"MEAN_MOTION_DDOT":0},{"OBJECT_NAME":"ORBVIEW 2 (SEASTAR)","OBJECT_ID":"1997-037A","EPOCH":"2026-03-05T03:59:07.638432","MEAN_MOTION":14.35490983,"ECCENTRICITY":0.00031591,"INCLINATION":98.8557,"RA_OF_ASC_NODE":228.3581,"ARG_OF_PERICENTER":80.9632,"MEAN_ANOMALY":279.191,"EPHEMERIS_TYPE":0,"CLASSIFICATION_TYPE":"U","NORAD_CAT_ID":24883,"ELEMENT_SET_NO":999,"REV_AT_EPOCH":50782,"BSTAR":0.00016600093,"MEAN_MOTION_DOT":4.31e-6,"MEAN_MOTION_DDOT":0},{"OBJECT_NAME":"SL-16 R/B","OBJECT_ID":"1998-043G","EPOCH":"2026-03-05T07:28:16.945536","MEAN_MOTION":14.26048554,"ECCENTRICITY":0.00104168,"INCLINATION":98.8249,"RA_OF_ASC_NODE":17.644,"ARG_OF_PERICENTER":32.5107,"MEAN_ANOMALY":327.6712,"EPHEMERIS_TYPE":0,"CLASSIFICATION_TYPE":"U","NORAD_CAT_ID":25400,"ELEMENT_SET_NO":999,"REV_AT_EPOCH":43836,"BSTAR":5.7382005e-5,"MEAN_MOTION_DOT":9.2e-7,"MEAN_MOTION_DDOT":0},{"OBJECT_NAME":"SL-16 R/B","OBJECT_ID":"1998-045B","EPOCH":"2026-03-04T11:42:08.066304","MEAN_MOTION":14.16189328,"ECCENTRICITY":0.00064343,"INCLINATION":71.0113,"RA_OF_ASC_NODE":192.5126,"ARG_OF_PERICENTER":15.887,"MEAN_ANOMALY":344.2454,"EPHEMERIS_TYPE":0,"CLASSIFICATION_TYPE":"U","NORAD_CAT_ID":25407,"ELEMENT_SET_NO":999,"REV_AT_EPOCH":42636,"BSTAR":-6.3820258e-5,"MEAN_MOTION_DOT":-1.74e-6,"MEAN_MOTION_DDOT":0},{"OBJECT_NAME":"ISS (ZARYA)","OBJECT_ID":"1998-067A","EPOCH":"2026-03-05T06:05:40.876512","MEAN_MOTION":15.48454548,"ECCENTRICITY":0.00081607,"INCLINATION":51.6314,"RA_OF_ASC_NODE":94.2866,"ARG_OF_PERICENTER":158.8383,"MEAN_ANOMALY":201.2944,"EPHEMERIS_TYPE":0,"CLASSIFICATION_TYPE":"U","NORAD_CAT_ID":25544,"ELEMENT_SET_NO":999,"REV_AT_EPOCH":55564,"BSTAR":0.00016717327,"MEAN_MOTION_DOT":8.604e-5,"MEAN_MOTION_DDOT":0},{"OBJECT_NAME":"CZ-4B R/B","OBJECT_ID":"1999-025C","EPOCH":"2026-03-05T03:38:31.758144","MEAN_MOTION":14.18264374,"ECCENTRICITY":0.00369987,"INCLINATION":98.6636,"RA_OF_ASC_NODE":108.5407,"ARG_OF_PERICENTER":359.7385,"MEAN_ANOMALY":68.5947,"EPHEMERIS_TYPE":0,"CLASSIFICATION_TYPE":"U","NORAD_CAT_ID":25732,"ELEMENT_SET_NO":999,"REV_AT_EPOCH":38752,"BSTAR":5.9118892e-5,"MEAN_MOTION_DOT":7.9e-7,"MEAN_MOTION_DDOT":0},{"OBJECT_NAME":"OKEAN-O","OBJECT_ID":"1999-039A","EPOCH":"2026-03-05T02:57:24.968160","MEAN_MOTION":14.80326672,"ECCENTRICITY":0.0001402,"INCLINATION":97.9451,"RA_OF_ASC_NODE":124.0609,"ARG_OF_PERICENTER":70.5511,"MEAN_ANOMALY":289.5852,"EPHEMERIS_TYPE":0,"CLASSIFICATION_TYPE":"U","NORAD_CAT_ID":25860,"ELEMENT_SET_NO":999,"REV_AT_EPOCH":43371,"BSTAR":0.00011926103,"MEAN_MOTION_DOT":8.57e-6,"MEAN_MOTION_DDOT":0},{"OBJECT_NAME":"SL-16 R/B","OBJECT_ID":"1999-039B","EPOCH":"2026-03-05T04:11:51.534528","MEAN_MOTION":14.81724541,"ECCENTRICITY":0.00134399,"INCLINATION":97.9974,"RA_OF_ASC_NODE":123.2781,"ARG_OF_PERICENTER":272.3041,"MEAN_ANOMALY":87.6633,"EPHEMERIS_TYPE":0,"CLASSIFICATION_TYPE":"U","NORAD_CAT_ID":25861,"ELEMENT_SET_NO":999,"REV_AT_EPOCH":43619,"BSTAR":0.00011113122,"MEAN_MOTION_DOT":8.23e-6,"MEAN_MOTION_DDOT":0}]
